      2.10          N: GNSS NAV DATA                        RINEX VERSION / TYPE
fic2rin                                 05/16/2022 00:17:38 PGM / RUN BY / DATE
                                                            END OF HEADER
8  22  5 15  1 59 44.0 -.680447556078D-04 -.159161572810D-11  .000000000000D+00
     .130000000000D+02 -.594375000000D+02  .465340811884D-08  .109453394245D+01
    -.311806797981D-05  .744736881461D-02  .145472586155D-05  .515376118851D+04
     .718400000000D+04  .931322574615D-08  .166494800521D+01  .856816768646D-07
     .963394987325D+00  .352531250000D+03  .167488904265D+00 -.852249785339D-08
    -.205365697163D-09  .100000000000D+01  .221000000000D+04  .000000000000D+00
     .240000000000D+01  .000000000000D+00  .512227416039D-08  .130000000000D+02
     .000000000000D+00  .400000000000D+01
17 22  5 15  1 59 44.0  .612740404904D-03  .466116034659D-11  .000000000000D+00
     .230000000000D+02 -.828437500000D+02  .441268380599D-08  .107586164084D+01
    -.443123281002D-05  .135054292623D-01  .247545540333D-05  .515354692650D+04
     .718400000000D+04 -.247731804848D-06  .174824790653D+01 -.236555933952D-06
     .978622789807D+00  .339125000000D+03 -.149396187385D+01 -.851178312136D-08
    -.184650548579D-09  .100000000000D+01  .221000000000D+04  .000000000000D+00
     .240000000000D+01  .000000000000D+00 -.111758708954D-07  .230000000000D+02
     .000000000000D+00  .400000000000D+01
2  22  5 15  2  0  0.0 -.653246883303D-03  .113686837722D-12  .000000000000D+00
     .910000000000D+02 -.102718750000D+03  .422089010273D-08 -.929632676944D+00
    -.542216002941D-05  .204236585414D-01  .127367675304D-04  .515367194557D+04
     .720000000000D+04 -.342726707458D-06  .265580219895D+01  .931322574615D-07
     .966082082568D+00  .145406250000D+03 -.141924305939D+01 -.819927010394D-08
     .975040614355D-10  .100000000000D+01  .221000000000D+04  .000000000000D+00
     .240000000000D+01  .000000000000D+00 -.176951289177D-07  .910000000000D+02
     .000000000000D+00  .400000000000D+01
1  22  5 15  2  0  0.0  .362809747458D-03 -.829913915368D-11  .000000000000D+00
     .570000000000D+02 -.897500000000D+02  .370729728096D-08 -.108377423557D+01
    -.447779893875D-05  .118937056977D-01  .116862356663D-04  .515366853142D+04
     .720000000000D+04  .199303030968D-06  .274688129881D+01  .176951289177D-06
     .987981527339D+00  .167250000000D+03  .904165686999D+00 -.760888836931D-08
     .785747015231D-10  .100000000000D+01  .221000000000D+04  .000000000000D+00
     .240000000000D+01  .000000000000D+00  .512227416039D-08  .570000000000D+02
     .000000000000D+00  .400000000000D+01
3  22  5 15  2  0  0.0 -.244504306465D-03 -.136424205266D-10  .000000000000D+00
     .800000000000D+02  .425625000000D+02  .458197657200D-08 -.219426737664D+01
     .221468508244D-05  .413974304684D-02  .845827162266D-05  .515362191772D+04
     .720000000000D+04  .763684511185D-07 -.250277751537D+01  .298023223877D-07
     .973701641645D+00  .223968750000D+03  .952993413029D+00 -.794783105907D-08
     .714315468392D-09  .100000000000D+01  .221000000000D+04  .000000000000D+00
     .340000000000D+01  .000000000000D+00  .186264514923D-08  .800000000000D+02
     .000000000000D+00  .400000000000D+01
7  22  5 15  2  0  0.0  .322070904076D-03  .341060513165D-12  .000000000000D+00
     .130000000000D+02  .445312500000D+02  .433803783955D-08 -.175245426267D+01
     .208616256714D-05  .160749357892D-01  .121798366308D-04  .515366827202D+04
     .720000000000D+04  .290572643280D-06 -.402898708931D+00 -.167638063431D-06
     .951151458728D+00  .138843750000D+03 -.226895041105D+01 -.762174604774D-08
    -.413945813933D-09  .100000000000D+01  .221000000000D+04  .000000000000D+00
     .240000000000D+01  .000000000000D+00 -.111758708954D-07  .130000000000D+02
     .000000000000D+00  .400000000000D+01
5  22  5 15  2  0  0.0 -.818748958409D-04 -.136424205266D-11  .000000000000D+00
     .990000000000D+02  .376875000000D+02  .487984612232D-08  .157280296910D+01
     .199675559998D-05  .595957762562D-02  .932812690735D-05  .515371583557D+04
     .720000000000D+04 -.156462192535D-06 -.254435525786D+01  .186264514923D-08
     .960743857924D+00  .202375000000D+03  .102056924470D+01 -.813355308085D-08
     .746102506736D-09  .100000000000D+01  .221000000000D+04  .000000000000D+00
     .240000000000D+01  .000000000000D+00 -.111758708954D-07  .990000000000D+02
     .000000000000D+00  .400000000000D+01
6  22  5 15  2  0  0.0  .303721055388D-03  .145519152284D-10  .000000000000D+00
     .560000000000D+02 -.100968750000D+03  .364622330841D-08 -.851190790096D+00
    -.558048486710D-05  .257322913967D-02  .130124390125D-04  .515373190498D+04
     .720000000000D+04 -.409781932831D-07  .273860548639D+01 -.465661287308D-07
     .987320727243D+00  .143000000000D+03 -.858891541126D+00 -.760424531877D-08
     .910752222200D-10  .100000000000D+01  .221000000000D+04  .000000000000D+00
     .240000000000D+01  .000000000000D+00  .372529029846D-08  .560000000000D+02
     .000000000000D+00  .400000000000D+01
4  22  5 15  2  0  0.0 -.167162157595D-03  .352429196937D-11  .000000000000D+00
     .460000000000D+02 -.340625000000D+02  .504235289138D-08  .653617290058D+00
    -.179372727871D-05  .180760049261D-02  .519305467606D-05  .515361098862D+04
     .720000000000D+04 -.447034835815D-07 -.142107921322D+01 -.819563865662D-07
     .960856743997D+00  .274093750000D+03 -.296700461604D+01 -.836749139675D-08
    -.550737226130D-09  .100000000000D+01  .221000000000D+04  .000000000000D+00
     .240000000000D+01  .000000000000D+00 -.465661287308D-08  .814000000000D+03
     .000000000000D+00  .400000000000D+01
10 22  5 15  2  0  0.0 -.414845068008D-03 -.144382283906D-10  .000000000000D+00
     .590000000000D+02  .354062500000D+02  .447340062081D-08 -.311519073903D+01
     .180490314960D-05  .760090223048D-02  .910274684429D-05  .515367616653D+04
     .720000000000D+04 -.651925802231D-07 -.250553539390D+01 -.169500708580D-06
     .973512063554D+00  .211812500000D+03 -.249448100997D+01 -.777139513837D-08
     .656455915452D-09  .100000000000D+01  .221000000000D+04  .000000000000D+00
     .240000000000D+01  .000000000000D+00  .232830643654D-08  .590000000000D+02
     .000000000000D+00  .400000000000D+01
9  22  5 15  2  0  0.0 -.336671248078D-03  .284217094304D-11  .000000000000D+00
     .510000000000D+02 -.316562500000D+02  .517414409530D-08  .161991078184D+01
    -.184215605259D-05  .208422739524D-02  .496767461300D-05  .515355929375D+04
     .720000000000D+04 -.540167093277D-07 -.147478011394D+01 -.353902578354D-07
     .953884221884D+00  .276156250000D+03  .187322006069D+01 -.836963434315D-08
    -.483948729836D-09  .100000000000D+01  .221000000000D+04  .000000000000D+00
     .240000000000D+01  .000000000000D+00  .139698386192D-08  .510000000000D+02
     .000000000000D+00  .400000000000D+01
11 22  5 15  2  0  0.0 -.248742289841D-04  .477484718431D-11  .000000000000D+00
     .184000000000D+03 -.964375000000D+02  .418731727571D-08  .106990671137D+01
    -.504963099957D-05  .356734613888D-03  .132210552692D-04  .515358384514D+04
     .720000000000D+04 -.242143869400D-07  .278854941599D+01  .931322574615D-08
     .963162814912D+00  .128406250000D+03  .283410268956D+01 -.780603943859D-08
     .131076888450D-09  .100000000000D+01  .221000000000D+04  .000000000000D+00
     .240000000000D+01  .630000000000D+02 -.838190317154D-08  .184000000000D+03
     .000000000000D+00  .400000000000D+01
27 22  5 15  2  0  0.0  .202943570912D-03  .613908923697D-11  .000000000000D+00
     .150000000000D+02 -.623125000000D+02  .455768984608D-08  .113054764426D+01
    -.337883830070D-05  .105523143429D-01  .142864882946D-05  .515365216064D+04
     .720000000000D+04 -.633299350739D-07  .168512271199D+01  .502914190292D-07
     .972131253214D+00  .359031250000D+03  .680553219453D+00 -.852499795753D-08
    -.257510726355D-09  .100000000000D+01  .221000000000D+04  .000000000000D+00
     .240000000000D+01  .000000000000D+00  .186264514923D-08  .150000000000D+02
     .000000000000D+00  .400000000000D+01
29 22  5 15  2  0  0.0 -.513712409884D-03 -.397903932026D-11  .000000000000D+00
     .340000000000D+02 -.877812500000D+02  .428982154543D-08  .124612274707D+01
    -.453181564808D-05  .214955885895D-02  .177882611752D-05  .515370617485D+04
     .720000000000D+04  .726431608200D-07  .176146486228D+01  .316649675369D-07
     .980685259992D+00  .356125000000D+03  .225620675904D+01 -.835820529566D-08
    -.198579700213D-09  .100000000000D+01  .221000000000D+04  .000000000000D+00
     .240000000000D+01  .000000000000D+00 -.102445483208D-07  .340000000000D+02
     .000000000000D+00  .400000000000D+01
31 22  5 15  2  0  0.0 -.177649315447D-03 -.159161572810D-11  .000000000000D+00
     .610000000000D+02  .286562500000D+02  .426303471536D-08 -.221921939455D+01
     .146031379700D-05  .104316280922D-01  .130683183670D-04  .515374353218D+04
     .720000000000D+04 -.149011611938D-07 -.384467251907D+00 -.968575477600D-07
     .955363972298D+00  .124218750000D+03  .389659822576D+00 -.773175062988D-08
    -.373586989969D-09  .100000000000D+01  .221000000000D+04  .000000000000D+00
     .240000000000D+01  .000000000000D+00 -.135041773319D-07  .610000000000D+02
     .000000000000D+00  .400000000000D+01
24 22  5 15  2  0  0.0  .240918714553D-03 -.682121026330D-11  .000000000000D+00
     .320000000000D+02  .190625000000D+02  .491449042254D-08 -.777201281256D+00
     .905245542526D-06  .124656393891D-01  .129528343678D-04  .515369387436D+04
     .720000000000D+04  .108033418655D-06 -.487089721928D+00  .225380063057D-06
     .934576229697D+00  .115031250000D+03  .814244641860D+00 -.827177312398D-08
    -.694314635277D-09  .100000000000D+01  .221000000000D+04  .000000000000D+00
     .240000000000D+01  .000000000000D+00  .279396772385D-08  .320000000000D+02
     .000000000000D+00  .400000000000D+01
